{"type": "FeatureCollection", "features": [{"type": "Feature", "properties": {"norad_id": 28054, "name": "DMSP 5D-3 F16 (USA 172)", "group": "weather", "lat": 7.024396672435305, "lon": -169.56825408553448, "alt_km": 849.2815950574195, "timestamp": "2025-12-17T19:34:07.687589+00:00", "meta": {"OBJECT_NAME": "DMSP 5D-3 F16 (USA 172)", "OBJECT_ID": "2003-048A", "EPOCH": "2025-12-17T07:09:25.189344", "MEAN_MOTION": 14.14425966, "ECCENTRICITY": 0.00063532, "INCLINATION": 99.0042, "RA_OF_ASC_NODE": 8.7911, "ARG_OF_PERICENTER": 306.4111, "MEAN_ANOMALY": 114.5414, "EPHEMERIS_TYPE": 0, "CLASSIFICATION_TYPE": "U", "NORAD_CAT_ID": 28054, "ELEMENT_SET_NO": 999, "REV_AT_EPOCH": 14377, "BSTAR": 8.585697e-05, "MEAN_MOTION_DOT": 1.19e-06, "MEAN_MOTION_DDOT": 0}, "tle": {"line1": "1 28054U 03048A   25351.29820821  .00000119  00000+0  85857-4 0  9999", "line2": "2 28054  99.0042   8.7911 0006353 306.4111 114.5414 14.14425966143778"}}, "geometry": {"type": "Point", "coordinates": [-169.56825408553448, 7.024396672435305]}}, {"type": "Feature", "properties": {"norad_id": 28912, "name": "METEOSAT-9 (MSG-2)", "group": "weather", "lat": 1.5783247050435047, "lon": 65.87449376913862, "alt_km": 35798.180755347465, "timestamp": "2025-12-17T19:34:07.687638+00:00", "meta": {"OBJECT_NAME": "METEOSAT-9 (MSG-2)", "OBJECT_ID": "2005-049B", "EPOCH": "2025-12-16T20:25:21.138240", "MEAN_MOTION": 1.00278778, "ECCENTRICITY": 0.00033903, "INCLINATION": 8.9483, "RA_OF_ASC_NODE": 55.9385, "ARG_OF_PERICENTER": 190.7739, "MEAN_ANOMALY": 191.1196, "EPHEMERIS_TYPE": 0, "CLASSIFICATION_TYPE": "U", "NORAD_CAT_ID": 28912, "ELEMENT_SET_NO": 999, "REV_AT_EPOCH": 517, "BSTAR": 0, "MEAN_MOTION_DOT": 1.4e-06, "MEAN_MOTION_DDOT": 0}, "tle": {"line1": "1 28912U 05049B   25350.85093910  .00000140  00000+0  00000+0 0  9993", "line2": "2 28912   8.9483  55.9385 0003390 190.7739 191.1196  1.00278778  5173"}}, "geometry": {"type": "Point", "coordinates": [65.87449376913862, 1.5783247050435047]}}, {"type": "Feature", "properties": {"norad_id": 29522, "name": "DMSP 5D-3 F17 (USA 191)", "group": "weather", "lat": 56.87145618531185, "lon": -169.26834070475823, "alt_km": 836.7779974955165, "timestamp": "2025-12-17T19:34:07.687657+00:00", "meta": {"OBJECT_NAME": "DMSP 5D-3 F17 (USA 191)", "OBJECT_ID": "2006-050A", "EPOCH": "2025-12-17T07:06:47.536992", "MEAN_MOTION": 14.14921595, "ECCENTRICITY": 0.00095819, "INCLINATION": 98.7391, "RA_OF_ASC_NODE": 356.5907, "ARG_OF_PERICENTER": 211.0212, "MEAN_ANOMALY": 149.0397, "EPHEMERIS_TYPE": 0, "CLASSIFICATION_TYPE": "U", "NORAD_CAT_ID": 29522, "ELEMENT_SET_NO": 999, "REV_AT_EPOCH": 98669, "BSTAR": 0.00010177087, "MEAN_MOTION_DOT": 1.53e-06, "MEAN_MOTION_DDOT": 0}, "tle": {"line1": "1 29522U 06050A   25351.29638353  .00000153  00000+0  10177-3 0  9993", "line2": "2 29522  98.7391 356.5907 0009581 211.0212 149.0397 14.14921595986698"}}, "geometry": {"type": "Point", "coordinates": [-169.26834070475823, 56.87145618531185]}}, {"type": "Feature", "properties": {"norad_id": 32958, "name": "FENGYUN 3A", "group": "weather", "lat": -76.8486170336413, "lon": -27.993623254982243, "alt_km": 828.8960632000744, "timestamp": "2025-12-17T19:34:07.687672+00:00", "meta": {"OBJECT_NAME": "FENGYUN 3A", "OBJECT_ID": "2008-026A", "EPOCH": "2025-12-17T08:06:12.122784", "MEAN_MOTION": 14.19516114, "ECCENTRICITY": 0.00077435, "INCLINATION": 98.6701, "RA_OF_ASC_NODE": 290.7676, "ARG_OF_PERICENTER": 295.7922, "MEAN_ANOMALY": 64.2455, "EPHEMERIS_TYPE": 0, "CLASSIFICATION_TYPE": "U", "NORAD_CAT_ID": 32958, "ELEMENT_SET_NO": 999, "REV_AT_EPOCH": 90960, "BSTAR": 5.7358549e-05, "MEAN_MOTION_DOT": 7.8e-07, "MEAN_MOTION_DDOT": 0}, "tle": {"line1": "1 32958U 08026A   25351.33764031  .00000078  00000+0  57359-4 0  9993", "line2": "2 32958  98.6701 290.7676 0007743 295.7922  64.2455 14.19516114909607"}}, "geometry": {"type": "Point", "coordinates": [-27.993623254982243, -76.8486170336413]}}, {"type": "Feature", "properties": {"norad_id": 35491, "name": "GOES 14", "group": "weather", "lat": -0.06653152003978206, "lon": -92.75087132799624, "alt_km": 35832.954745185445, "timestamp": "2025-12-17T19:34:07.687692+00:00", "meta": {"OBJECT_NAME": "GOES 14", "OBJECT_ID": "2009-033A", "EPOCH": "2025-12-17T07:00:12.350304", "MEAN_MOTION": 1.00096677, "ECCENTRICITY": 5.449e-05, "INCLINATION": 1.2143, "RA_OF_ASC_NODE": 85.3537, "ARG_OF_PERICENTER": 173.8745, "MEAN_ANOMALY": 179.3636, "EPHEMERIS_TYPE": 0, "CLASSIFICATION_TYPE": "U", "NORAD_CAT_ID": 35491, "ELEMENT_SET_NO": 999, "REV_AT_EPOCH": 476, "BSTAR": 0, "MEAN_MOTION_DOT": 9e-08, "MEAN_MOTION_DDOT": 0}, "tle": {"line1": "1 35491U 09033A   25351.29180961  .00000009  00000+0  00000+0 0  9996", "line2": "2 35491   1.2143  85.3537 0000544 173.8745 179.3636  1.00096677  4762"}}, "geometry": {"type": "Point", "coordinates": [-92.75087132799624, -0.06653152003978206]}}, {"type": "Feature", "properties": {"norad_id": 35951, "name": "DMSP 5D-3 F18 (USA 210)", "group": "weather", "lat": -13.21541151258662, "lon": -29.704366052275887, "alt_km": 843.5516935683227, "timestamp": "2025-12-17T19:34:07.687713+00:00", "meta": {"OBJECT_NAME": "DMSP 5D-3 F18 (USA 210)", "OBJECT_ID": "2009-057A", "EPOCH": "2025-12-17T04:21:20.943360", "MEAN_MOTION": 14.14772121, "ECCENTRICITY": 0.00119659, "INCLINATION": 98.8837, "RA_OF_ASC_NODE": 327.5601, "ARG_OF_PERICENTER": 51.1194, "MEAN_ANOMALY": 309.1045, "EPHEMERIS_TYPE": 0, "CLASSIFICATION_TYPE": "U", "NORAD_CAT_ID": 35951, "ELEMENT_SET_NO": 999, "REV_AT_EPOCH": 83385, "BSTAR": 0.00015709116, "MEAN_MOTION_DOT": 2.58e-06, "MEAN_MOTION_DDOT": 0}, "tle": {"line1": "1 35951U 09057A   25351.18149240  .00000258  00000+0  15709-3 0  9998", "line2": "2 35951  98.8837 327.5601 0011965  51.1194 309.1045 14.14772121833854"}}, "geometry": {"type": "Point", "coordinates": [-29.704366052275887, -13.21541151258662]}}, {"type": "Feature", "properties": {"norad_id": 36411, "name": "EWS-G2 (GOES 15)", "group": "weather", "lat": -0.03800155937278369, "lon": 81.5855072050134, "alt_km": 35809.70095055121, "timestamp": "2025-12-17T19:34:07.687728+00:00", "meta": {"OBJECT_NAME": "EWS-G2 (GOES 15)", "OBJECT_ID": "2010-008A", "EPOCH": "2025-12-17T05:03:25.103808", "MEAN_MOTION": 1.0027069, "ECCENTRICITY": 0.00055095, "INCLINATION": 0.8246, "RA_OF_ASC_NODE": 86.0762, "ARG_OF_PERICENTER": 176.3951, "MEAN_ANOMALY": 320.8525, "EPHEMERIS_TYPE": 0, "CLASSIFICATION_TYPE": "U", "NORAD_CAT_ID": 36411, "ELEMENT_SET_NO": 999, "REV_AT_EPOCH": 5781, "BSTAR": 0, "MEAN_MOTION_DOT": 6.2e-07, "MEAN_MOTION_DDOT": 0}, "tle": {"line1": "1 36411U 10008A   25351.21070722  .00000062  00000+0  00000+0 0  9997", "line2": "2 36411   0.8246  86.0762 0005509 176.3951 320.8525  1.00270690 57818"}}, "geometry": {"type": "Point", "coordinates": [81.5855072050134, -0.03800155937278369]}}, {"type": "Feature", "properties": {"norad_id": 36744, "name": "COMS 1", "group": "weather", "lat": 4.111665384966643, "lon": 148.32345720199157, "alt_km": 35787.930384624, "timestamp": "2025-12-17T19:34:07.687742+00:00", "meta": {"OBJECT_NAME": "COMS 1", "OBJECT_ID": "2010-032A", "EPOCH": "2025-12-16T22:05:51.684576", "MEAN_MOTION": 1.00271478, "ECCENTRICITY": 7.445e-05, "INCLINATION": 4.3505, "RA_OF_ASC_NODE": 77.9521, "ARG_OF_PERICENTER": 204.0252, "MEAN_ANOMALY": 263.4629, "EPHEMERIS_TYPE": 0, "CLASSIFICATION_TYPE": "U", "NORAD_CAT_ID": 36744, "ELEMENT_SET_NO": 999, "REV_AT_EPOCH": 4926, "BSTAR": 0, "MEAN_MOTION_DOT": -3.23e-06, "MEAN_MOTION_DDOT": 0}, "tle": {"line1": "1 36744U 10032A   25350.92073709 -.00000323  00000+0  00000+0 0  9999", "line2": "2 36744   4.3505  77.9521 0000744 204.0252 263.4629  1.00271478 49267"}}, "geometry": {"type": "Point", "coordinates": [148.32345720199157, 4.111665384966643]}}, {"type": "Feature", "properties": {"norad_id": 37214, "name": "FENGYUN 3B", "group": "weather", "lat": -47.61196832893142, "lon": 41.81703393487543, "alt_km": 836.3472282016728, "timestamp": "2025-12-17T19:34:07.687755+00:00", "meta": {"OBJECT_NAME": "FENGYUN 3B", "OBJECT_ID": "2010-059A", "EPOCH": "2025-12-17T06:32:27.182112", "MEAN_MOTION": 14.1479035, "ECCENTRICITY": 0.00218351, "INCLINATION": 98.9907, "RA_OF_ASC_NODE": 31.2818, "ARG_OF_PERICENTER": 344.8119, "MEAN_ANOMALY": 83.7743, "EPHEMERIS_TYPE": 0, "CLASSIFICATION_TYPE": "U", "NORAD_CAT_ID": 37214, "ELEMENT_SET_NO": 999, "REV_AT_EPOCH": 78170, "BSTAR": 4.8098179e-05, "MEAN_MOTION_DOT": 4.7e-07, "MEAN_MOTION_DDOT": 0}, "tle": {"line1": "1 37214U 10059A   25351.27253683  .00000047  00000+0  48098-4 0  9997", "line2": "2 37214  98.9907  31.2818 0021835 344.8119  83.7743 14.14790350781702"}}, "geometry": {"type": "Point", "coordinates": [41.81703393487543, -47.61196832893142]}}, {"type": "Feature", "properties": {"norad_id": 37849, "name": "SUOMI NPP", "group": "weather", "lat": -57.73202026754042, "lon": 94.94637808293167, "alt_km": 835.1045815321186, "timestamp": "2025-12-17T19:34:07.687767+00:00", "meta": {"OBJECT_NAME": "SUOMI NPP", "OBJECT_ID": "2011-061A", "EPOCH": "2025-12-17T08:17:51.415872", "MEAN_MOTION": 14.19515553, "ECCENTRICITY": 0.00023796, "INCLINATION": 98.7778, "RA_OF_ASC_NODE": 288.6459, "ARG_OF_PERICENTER": 112.1218, "MEAN_ANOMALY": 248.0211, "EPHEMERIS_TYPE": 0, "CLASSIFICATION_TYPE": "U", "NORAD_CAT_ID": 37849, "ELEMENT_SET_NO": 999, "REV_AT_EPOCH": 73264, "BSTAR": 5.4760828e-05, "MEAN_MOTION_DOT": 7.1e-07, "MEAN_MOTION_DDOT": 0}, "tle": {"line1": "1 37849U 11061A   25351.34573398  .00000071  00000+0  54761-4 0  9992", "line2": "2 37849  98.7778 288.6459 0002379 112.1218 248.0211 14.19515553732647"}}, "geometry": {"type": "Point", "coordinates": [94.94637808293167, -57.73202026754042]}}]}